IRIDIUM 57 [-]          
1 25273U 98019B   23304.60913707  .00000655  00000+0  22341-3 0  9991
2 25273  86.4008  34.2337 0002156  93.2508 266.8935 14.34962137339497
IRIDIUM 63 [-]          
1 25286U 98021B   23304.57722005  .00000618  00000+0  20848-3 0  9992
2 25286  86.3977 331.2127 0002329  88.1439 272.0024 14.35465996338512
IRIDIUM 69 [-]          
1 25319U 98026A   23304.82814998  .00000745  00000+0  23207-3 0  9998
2 25319  86.4004 346.1553 0003148 138.3104 221.8335 14.39642006337751
IRIDIUM 71 [-]          
1 25320U 98026B   23304.60159434  .00000618  00000+0  19020-3 0  9990
2 25320  86.3988 341.0769 0000940 164.2201 195.9028 14.39973487337995
IRIDIUM 73 [-]          
1 25344U 98032C   23304.68820935  .00000925  00000+0  23332-3 0  9994
2 25344  86.4368 298.8286 0002226 106.6840 253.4609 14.50097126344662
IRIDIUM 82 [-]          
1 25467U 98051A   23304.74723209  .00010530  00000+0  61426-3 0  9993
2 25467  86.3999  33.7096 0144077 339.8162  19.7407 15.03366535333940
IRIDIUM 2 [-]           
1 25527U 98066A   23304.47413750  .00048181  00000+0  10698-2 0  9990
2 25527  85.5168  88.4259 0005128 125.0095 235.1641 15.43498031372125
